{"fetched_at":"2026-03-29T16:36:15Z","count":15609,"tles":[{"name":"STARLINK-34413","line1":"1 64616U 25137Y   26087.78086331  .00015513  00000+0  53481-3 0  9998","line2":"2 64616  53.1576 246.8529 0000834  61.6040 298.5045 15.30199221 43755","category":"Starlink"}]}