{
  "norad_id": 64616,
  "name": "STARLINK-34413",
  "history": [
    {
      "epoch": "2026-03-28T18:44:26.589984Z",
      "apogee_km": 475.78958193236485,
      "perigee_km": 474.6452088154265,
      "latitude_deg": 1.7687770748265136e-05,
      "longitude_deg": 139.5457317005601,
      "height_km": 475.84381873925224,
      "semi_major_axis_km": 6853.354395373895,
      "eccentricity": 8.349e-05,
      "inclination_deg": 53.1576,
      "raan_deg": 246.8529,
      "arg_perigee_deg": 61.604,
      "mean_anomaly_deg": 298.5045,
      "mean_motion_rev_day": 15.30199221
    }
  ]
}